Bank,Branch_Title,Address,City,State,Zip,Institution,full_addr,latitude,longitude
Bank of Ocean City,Berlin Office,627 Williams Street,Berlin,MD,21811,Bank,"627 Williams Street Berlin, MD 21811",38.333867186836,-75.213286250463
Bank of Ocean City,Ocean Pines Office,11001 Nicholas Lane,Berlin,MD,21811,Bank,"11001 Nicholas Lane Berlin, MD 21811",38.374731605116,-75.16259845121
Bank of Ocean City,West Ocean City Office,10005 Golf Course Road,Ocean City,MD,21842,Bank,"10005 Golf Course Road Ocean City, MD 21842",38.336884546251,-75.105503273711
Bank of Ocean City,59th Street Office,5900 Coastal Highway,Ocean City,MD,21842,Bank,"5900 Coastal Highway Ocean City, MD 21842",38.382873408675,-75.066700510246
BayVanguard Bank,North Point,7114 North Point Road,Baltimore,MD,21219,Bank,"7114 North Point Road Baltimore, MD 21219",39.241007249449,-76.445925243407
BayVanguard Bank,Essex,532 Eastern Boulevard,Baltimore,MD,21221,Bank,"532 Eastern Boulevard Baltimore, MD 21221",39.30939067123,-76.474012581852
BayVanguard Bank,Locust Point,921 East Fort Avenue,Baltimore,MD,21230,Bank,"921 East Fort Avenue Baltimore, MD 21230",39.270836221646,-76.601000929531
BayVanguard Bank,Bayview,6201 Eastern Avenue,Baltimore,MD,21224,Bank,"6201 Eastern Avenue Baltimore, MD 21224",39.287362987775,-76.542651819318
BayVanguard Bank,Dundalk,3101 North Point Road,Baltimore,MD,21222,Bank,"3101 North Point Road Baltimore, MD 21222",39.277765582911,-76.485883368405
BayVanguard Bank,Forest Hill,1920 Rock Spring Road,Forest Hill,MD,21050,Bank,"1920 Rock Spring Road Forest Hill, MD 21050",39.570032488354,-76.381082672803
BayVanguard Bank,Perry Hall,8639 Belair Road,Baltimore,MD,21236,Bank,"8639 Belair Road Baltimore, MD 21236",39.390609929986,-76.489447772731
BayVanguard Bank,Cambridge - Woods Road,803 Woods Road,Cambridge,MD,21613,Bank,"803 Woods Road Cambridge, MD 21613",38.557077729403,-76.060059720678
BayVanguard Bank,Hurlock,100 Pine Street,Hurlock,MD,21643,Bank,"100 Pine Street Hurlock, MD 21643",38.629426881033,-75.860552236373
BayVanguard Bank,Cambridge - High Street,304 High Street,Cambridge,MD,21613,Bank,"304 High Street Cambridge, MD 21613",38.571507175719,-76.0767498501
BayVanguard Bank,Easton - Idlewild,501 Idlewild Ave.,Easton,MD,21601,Bank,"501 Idlewild Ave. Easton, MD 21601",38.764950017801,-76.068315979125
BayVanguard Bank,Easton - Glebe,8707 Commerce Drive,Easton,MD,21601,Bank,"8707 Commerce Drive Easton, MD 21601",38.788096769149,-76.078860832415
BayVanguard Bank,Oxford,104 Factory Street,Oxford,MD,21654,Bank,"104 Factory Street Oxford, MD 21654",38.689987011575,-76.172331122762
BayVanguard Bank,Mountain Road - Pasadena,125 Mountain Road,Pasadena,MD,21122,Bank,"125 Mountain Road Pasadena, MD 21122",39.133020634359,-76.579780968176
Calvin B. Taylor Bank,Main Office,24 North Main Street,Berlin,MD,21811,Bank,"24 North Main Street Berlin, MD 21811",38.325188061374,-75.219536384204
Calvin B. Taylor Bank,Ocean Landing Branch,11359 Samuel Bowen Blvd.,Berlin,MD,21811,Bank,"11359 Samuel Bowen Blvd. Berlin, MD 21811",38.343643000509,-75.163412753103
Calvin B. Taylor Bank,Ocean Pines Branch,11103 Cathell Road,Berlin,MD,21811,Bank,"11103 Cathell Road Berlin, MD 21811",38.378885843968,-75.166399057566
Calvin B. Taylor Bank,West Ocean City Branch,9923 Golf Course Rd.,Ocean City,MD,21842,Bank,"9923 Golf Course Rd. Ocean City, MD 21842",38.335698339313,-75.105803345845
Calvin B. Taylor Bank,South Ocean City Branch,100 20th Street,Ocean City,MD,21842,Bank,"100 20th Street Ocean City, MD 21842",38.349808812304,-75.077245531174
Calvin B. Taylor Bank,Mid-Ocean City Branch,9105 Coastal Highway,Ocean City,MD,21842,Bank,"9105 Coastal Highway Ocean City, MD 21842",38.407814264487,-75.059419067139
Calvin B. Taylor Bank,North Ocean City Branch,14200 Coastal Highway,Ocean City,MD,21842,Bank,"14200 Coastal Highway Ocean City, MD 21842",38.447623945981,-75.052192525497
Calvin B. Taylor Bank,Snow Hill Branch,108 W Market Street,Snow Hill,MD,21863,Bank,"108 W Market Street Snow Hill, MD 21863",38.176878834226,-75.393715684951
Calvin B. Taylor Bank,Pocomoke Branch,2140 Old Snow Hill Road,Pocomoke City,MD,21851,Bank,"2140 Old Snow Hill Road Pocomoke City, MD 21851",38.074512620491,-75.555379044058
Cecil Bank,Elkton Office,127 North Street,Elkton,MD,21921,Bank,"127 North Street Elkton, MD 21921",39.609025143836,-75.830568911429
Cecil Bank,Fair Hill Office,4434 Telegraph Road,Elkton,MD,21921,Bank,"4434 Telegraph Road Elkton, MD 21921",39.702962348099,-75.86979102151
Cecil Bank,North East Office,108 North East Plaza,North East,MD,21901,Bank,"108 North East Plaza North East, MD 21901",39.611273086449,-75.950517633907
Cecil Bank,Rising Sun Office,56 Rising Sun Town Centre,Rising Sun,MD,21911,Bank,"56 Rising Sun Town Centre Rising Sun, MD 21911",39.697596547053,-76.054689435314
CFG Bank,Annapolis Office,107 Forbes Street,Annapolis,MD,21401,Bank,"107 Forbes Street Annapolis, MD 21401",38.988354769064,-76.504560260337
CFG Bank,Fells Point Branch,1615 Thames Street,Baltimore,MD,21231,Bank,"1615 Thames Street Baltimore, MD 21231",39.281287993901,-76.593393011295
CFG Bank,Lutherville/Towson Branch,11 West Ridgely Road,Lutherville,MD,21093,Bank,"11 West Ridgely Road Lutherville, MD 21093",39.429410262699,-76.622689858369
EagleBank,Bethesda Main,7735 Old Georgetown Road,Bethesda,MD,20814,Bank,"7735 Old Georgetown Road Bethesda, MD 20814",38.987501114135,-77.097944522788
EagleBank,Chevy Chase,5480 Wisconsin Ave.,Chevy Chase,MD,20815,Bank,"5480 Wisconsin Ave. Chevy Chase, MD 20815",38.963188733423,-77.087521374732
EagleBank,Shady Grove,9600 Blackwell Road,Rockville,MD,20850,Bank,"9600 Blackwell Road Rockville, MD 20850",39.100707727066,-77.193213821013
EagleBank,Park Potomac,12505 Park Potomac Ave.,Potomac,MD,20854,Bank,"12505 Park Potomac Ave. Potomac, MD 20854",39.060311731445,-77.156747848334
EagleBank,Twinbrook,12300 Twinbrook Pkwy,Rockville,MD,20852,Bank,"12300 Twinbrook Pkwy Rockville, MD 20852",39.059082315797,-77.120083392188
Farmers and Merchants Bank,Eldersburg,1321 Liberty Road,Sykesville,MD,21784,Bank,"1321 Liberty Road Sykesville, MD 21784",39.403222179694,-76.949315526033
Farmers and Merchants Bank,Greenmount In-Store (Wal-Mart),2320 Hanover Pike,Hampstead,MD,21074,Bank,"2320 Hanover Pike Hampstead, MD 21074",39.637449811975,-76.867665144088
Farmers and Merchants Bank,Hampstead,735 Hanover Pike,Hampstead,MD,21074,Bank,"735 Hanover Pike Hampstead, MD 21074",39.594535850731,-76.845518647156
EagleBank,Silver Spring,8665-B Georgia Ave.,Silver Spring,MD,20910,Bank,"8665-B Georgia Ave. Silver Spring, MD 20910",38.997503700199,-77.029056594255
Farmers and Merchants Bank,Owings Mills,9320 Lakeside Blvd.,Owings Mills,MD,21117,Bank,"9320 Lakeside Blvd. Owings Mills, MD 21117",39.39970349865,-76.797874484583
Farmers and Merchants Bank,Reisterstown,25 Westminster Pike,Reisterstown,MD,21136,Bank,"25 Westminster Pike Reisterstown, MD 21136",39.470153730116,-76.83127779366
Farmers and Merchants Bank,Upperco/Main Office,15226 Hanover Pike,Upperco,MD,21155,Bank,"15226 Hanover Pike Upperco, MD 21155",39.543897546615,-76.838082306477
Farmers and Merchants Bank,Westminster,275 Clifton Blvd.,Westminster,MD,21157,Bank,"275 Clifton Blvd. Westminster, MD 21157",39.583926875882,-76.984752201002
Farmers and Merchants Bank,Carroll Lutheran Village,300 St. Luke Circle,Westminster,MD,21158,Bank,"300 St. Luke Circle Westminster, MD 21158",39.565412006139,-77.044177966679
Farmers and Merchants Bank,Towson,22 West Pennsylvania Ave.,Towson,MD,21204,Bank,"22 West Pennsylvania Ave. Towson, MD 21204",39.400771269296,-76.603805514334
First United Bank & Trust,Baughmans Lane,102 Baughmans Lane,Frederick,MD,21702,Bank,"102 Baughmans Lane Frederick, MD 21702",39.417855892991,-77.437359885051
First United Bank & Trust,Bel Air,14300 Barton Blvd SW,Cumberland,MD,21502,Bank,"14300 Barton Blvd SW Cumberland, MD 21502",39.575927648496,-78.84933765924
First United Bank & Trust,Center City,115 W Harrison Street,Cumberland,MD,21502,Bank,"115 W Harrison Street Cumberland, MD 21502",39.650126686157,-78.759644086826
First United Bank & Trust,Deep Creek Lane,38 Vacation Way,McHenry,MD,21541,Bank,"38 Vacation Way McHenry, MD 21541",39.562225667556,-79.35975440748
First United Bank & Trust,Emerald Pointe,19405 Emerald Square,Hagerstown,MD,21742,Bank,"19405 Emerald Square Hagerstown, MD 21742",39.672888917696,-77.697892988891
First United Bank & Trust,Friendsville,832 First Ave.,Friendsville,MD,21531,Bank,"832 First Ave. Friendsville, MD 21531",39.663434969105,-79.405375094807
First United Bank & Trust,Grantsville,157 Main Street,Grantsville,MD,21536,Bank,"157 Main Street Grantsville, MD 21536",39.697066433587,-79.156499122808
First United Bank & Trust,Hagerstown,130 S Edgewood Drive,Hagerstown,MD,21740,Bank,"130 S Edgewood Drive Hagerstown, MD 21740",39.615375231772,-77.694578197642
First United Bank & Trust,My Bank Express- Garrett Highway,12894 Garrett Highway,Oakland,MD,21550,Bank,"12894 Garrett Highway Oakland, MD 21550",39.423401611589,-79.394720438586
First United Bank & Trust,Myersville,209 Main Street,Myersville,MD,21773,Bank,"209 Main Street Myersville, MD 21773",39.505539275476,-77.566270789861
First United Bank & Trust,Oakland,19 S Second Street,Oakland,MD,21550,Bank,"19 S Second Street Oakland, MD 21550",39.410204430767,-79.407626474
First United Bank & Trust,Riverside,1990 Monocacy Blvd,Frederick,MD,21701,Bank,"1990 Monocacy Blvd Frederick, MD 21701",39.44801536363,-77.385409519721
First United Bank & Trust,Smithsburg,22940 Jefferson Blvd,Smithsburg,MD,21783,Bank,"22940 Jefferson Blvd Smithsburg, MD 21783",39.648230825387,-77.569294729069
First United Bank & Trust,Wesel Boulevard,1646 Wesel Boulevard,Hagerstown,MD,21740,Bank,"1646 Wesel Boulevard Hagerstown, MD 21740",39.631426282987,-77.7622035601
Forbright Bank,Bethesda,4801 Montgomery Lane,Bethesda,MD,20814,Bank,"4801 Montgomery Lane Bethesda, MD 20814",38.983792708713,-77.095504969869
Forbright Bank,Rockville,1700 Rockville Pike,Rockville,MD,20852,Bank,"1700 Rockville Pike Rockville, MD 20852",39.061910621385,-77.122665018366
Forbright Bank,Potomac,7963 Tuckerman Lane,Potomac,MD,20854,Bank,"7963 Tuckerman Lane Potomac, MD 20854",39.04134599913,-77.157745965364
Forbright Bank,"",4445 Willard Ave,Chevy Chase,MD,20815,Bank,"4445 Willard Ave Chevy Chase, MD 20815",38.962069036887,-77.08722113496
Harford Bank,Aberdeen Office,8 West Bel Air Avenue,Aberdeen,MD,21001,Bank,"8 West Bel Air Avenue Aberdeen, MD 21001",39.509364063623,-76.164477111848
Harford Bank,Abingdon Office,2905 Emmorton Road,Abingdon,MD,21009,Bank,"2905 Emmorton Road Abingdon, MD 21009",39.479582197722,-76.309718730072
First United Bank & Trust,Cannery,150 South East,Frederick,MD,21701,Bank,"150 South East Frederick, MD 21701",39.410762078786,-77.405743262454
Harford Bank,Bel Air Office,505 South Main Street,Bel Air,MD,21014,Bank,"505 South Main Street Bel Air, MD 21014",39.53174299073,-76.343835925843
Harford Bank,Elkton Office,133 North Bridge Street,Elkton,MD,21921,Bank,"133 North Bridge Street Elkton, MD 21921",39.608290344294,-75.834512932149
Harford Bank,Havre de Grace Office,960 Revolution Street,Havre de Grace,MD,21078,Bank,"960 Revolution Street Havre de Grace, MD 21078",39.542151721913,-76.100336022722
Harford Bank,Hickory Office,1610 Conowingo Road,Bel Air,MD,21014,Bank,"1610 Conowingo Road Bel Air, MD 21014",39.570261272402,-76.354838011952
Harford Bank,Jarrettsville Office,3891 Jarrettsville Pike,Jarrettsville,MD,21084,Bank,"3891 Jarrettsville Pike Jarrettsville, MD 21084",39.613073309703,-76.515876751633
Harford Bank,Joppa Office,501 Riviera Drive,Joppa,MD,21085,Bank,"501 Riviera Drive Joppa, MD 21085",39.407966839805,-76.349653721019
Harford Bank,Marketplace Office,545 Marketplace Drive,Bel Air,MD,21014,Bank,"545 Marketplace Drive Bel Air, MD 21014",39.524432630057,-76.349035052745
Harford Bank,Southfield Plaza Office,305 Augustine Herman Hwy,Elkton,MD,21921,Bank,"305 Augustine Herman Hwy Elkton, MD 21921",39.589226795169,-75.824610887014
Hebron Savings Bank,Hebron,101 N. Main Street,Hebron,MD,21830,Bank,"101 N. Main Street Hebron, MD 21830",38.419305225098,-75.689121780772
Hebron Savings Bank,Salisbury - Quantico Square,1008 W. Main Street,Salisbury,MD,21801,Bank,"1008 W. Main Street Salisbury, MD 21801",38.369164177388,-75.61499734205
Hebron Savings Bank,Salisbury - Carroll Street,415 E. Carroll Street,Salisbury,MD,21804,Bank,"415 E. Carroll Street Salisbury, MD 21804",38.362867021171,-75.592653032203
Hebron Savings Bank,Salisbury - North Salisbury Blvd.,2730 North Salisbury Boulevard,Salisbury,MD,21801,Bank,"2730 North Salisbury Boulevard Salisbury, MD 21801",38.418545405575,-75.566141072459
First United Bank & Trust,White Oaks,1501 Oldtown Road,Cumberland,MD,21502,Bank,"1501 Oldtown Road Cumberland, MD 21502",39.632035856895,-78.74371008889
Hebron Savings Bank,Salisbury - Mt. Hermon Road,1310 Mt. Hermon Road,Salisbury,MD,21804,Bank,"1310 Mt. Hermon Road Salisbury, MD 21804",38.366340314209,-75.567703040115
Hebron Savings Bank,Fruitland,108 E. Cedar Lane,Fruitland,MD,21826,Bank,"108 E. Cedar Lane Fruitland, MD 21826",38.326382524486,-75.61362606269
Hebron Savings Bank,Sharptown,303 Main Street,Sharptown,MD,21861,Bank,"303 Main Street Sharptown, MD 21861",38.541877734727,-75.720057206098
Hebron Savings Bank,Vienna,100 Market Street,Vienna,MD,21869,Bank,"100 Market Street Vienna, MD 21869",38.484967001008,-75.825634987944
Hebron Savings Bank,Salisbury - Riverside Drive,543C Riverside Drive,Salisbury,MD,21801,Bank,"543C Riverside Drive Salisbury, MD 21801",38.362251999025,-75.606020994301
Hebron Savings Bank,Princess Anne,30499 Mt. Vernon Road,Princess Anne,MD,21853,Bank,"30499 Mt. Vernon Road Princess Anne, MD 21853",38.21379449601,-75.695672992475
Hebron Savings Bank,Cambridge - Rt. 50,2801 Ocean Gateway,Cambridge,MD,21613,Bank,"2801 Ocean Gateway Cambridge, MD 21613",38.553982544017,-76.050239902013
Hebron Savings Bank,Cambridge - Cedar Street,6 Cedar Street,Cambridge,MD,21613,Bank,"6 Cedar Street Cambridge, MD 21613",38.564021800907,-76.067915743248
Hebron Savings Bank,Crisfield,57 Richardson Avenue,Crisfield,MD,21817,Bank,"57 Richardson Avenue Crisfield, MD 21817",37.988855605008,-75.846208788383
Middletown Valley Bank,Boonsboro,6721 Old National Pike,Boonsboro,MD,21713,Bank,"6721 Old National Pike Boonsboro, MD 21713",39.498962834244,-77.646091402344
Middletown Valley Bank,Eastern Blvd.,1101 Professional Court,Hagerstown,MD,21740,Bank,"1101 Professional Court Hagerstown, MD 21740",39.63691265771,-77.69568905127
Middletown Valley Bank,Frederick Business Dev. Office,9 North Market Street,Frederick,MD,21701,Bank,"9 North Market Street Frederick, MD 21701",39.414611928824,-77.411622245522
Middletown Valley Bank,Jefferson,3848 Jefferson Pike,Jefferson,MD,21755,Bank,"3848 Jefferson Pike Jefferson, MD 21755",39.361964021512,-77.534909563854
Middletown Valley Bank,Main Office,24 West Main Street,Middletown,MD,21769,Bank,"24 West Main Street Middletown, MD 21769",39.443739461454,-77.546564432581
Middletown Valley Bank,Middletown,803 East Main Street,Middletown,MD,21769,Bank,"803 East Main Street Middletown, MD 21769",39.438239298499,-77.527095115523
Middletown Valley Bank,Myersville,3001 Ventrie Court,Myersville,MD,21773,Bank,"3001 Ventrie Court Myersville, MD 21773",39.492952925848,-77.567780202985
Middletown Valley Bank,Oakland Business Dev. Office,19509 Garrett Hwy,Oakland,MD,21550,Bank,"19509 Garrett Hwy Oakland, MD 21550",39.501223307802,-79.328608680204
Middletown Valley Bank,Paramount,13418 Marsh Pike,Hagerstown,MD,21742,Bank,"13418 Marsh Pike Hagerstown, MD 21742",39.683039947265,-77.696664453343
Sandy Spring Bank,40 West,1003 West Patrick Street,Frederick,MD,21702,Bank,"1003 West Patrick Street Frederick, MD 21702",39.418460605395,-77.44126157716
Sandy Spring Bank,Airpark,7653 Lindbergh Drive,Gaithersburg,MD,20879,Bank,"7653 Lindbergh Drive Gaithersburg, MD 20879",39.168474240773,-77.154066980422
Sandy Spring Bank,Asbury,409 Russell Ave.,Gaithersburg,MD,20877,Bank,"409 Russell Ave. Gaithersburg, MD 20877",39.150065611652,-77.196543783507
Sandy Spring Bank,Ashton,1 Ashton Road,Ashton,MD,20861,Bank,"1 Ashton Road Ashton, MD 20861",39.149965992733,-77.013515037025
Sandy Spring Bank,Bedford Court,3701 International Drive,Silver Spring,MD,20906,Bank,"3701 International Drive Silver Spring, MD 20906",39.103654007941,-77.074420962983
Sandy Spring Bank,Beltsville,10985 Baltimore Ave.,Beltsville,MD,20705,Bank,"10985 Baltimore Ave. Beltsville, MD 20705",39.033376066495,-76.907472227191
Sandy Spring Bank,Bethesda,7550 Wisconsin Ave.,Bethesda,MD,20814,Bank,"7550 Wisconsin Ave. Bethesda, MD 20814",38.985678050195,-77.094826203349
Sandy Spring Bank,Burtonsville,3535 Spencerville Road,Burtonsville,MD,20866,Bank,"3535 Spencerville Road Burtonsville, MD 20866",39.107533278459,-76.937669206847
Sandy Spring Bank,Clarksville,12276 Clarksville Pike,Clarksville,MD,21029,Bank,"12276 Clarksville Pike Clarksville, MD 21029",39.209823007327,-76.94029198817
Sandy Spring Bank,Colesville,13300 New Hampshire Avenue,Silver Spring,MD,20904,Bank,"13300 New Hampshire Avenue Silver Spring, MD 20904",39.07369126057,-77.003063893413
Sandy Spring Bank,Damascus,26250 Ridge Road,Damascus,MD,20872,Bank,"26250 Ridge Road Damascus, MD 20872",39.288303227764,-77.206920663457
Sandy Spring Bank,Downtown Frederick,30 West Patrick Street,Frederick,MD,21701,Bank,"30 West Patrick Street Frederick, MD 21701",39.414039277199,-77.411958024563
Sandy Spring Bank,Edgewater,116 Mitchells Chance Road,Edgewater,MD,21037,Bank,"116 Mitchells Chance Road Edgewater, MD 21037",38.931146100597,-76.566215025525
Sandy Spring Bank,Ellicott City,6031 University Boulevard,Ellicott City,MD,21043,Bank,"6031 University Boulevard Ellicott City, MD 21043",39.209679425326,-76.795184899492
Sandy Spring Bank,Fulton,8315 Ice Crystal Drive,Laurel,MD,20723,Bank,"8315 Ice Crystal Drive Laurel, MD 20723",39.143483764093,-76.89851079923
Sandy Spring Bank,Gaithersburg Square,484 North Frederick Ave.,Gaithersburg,MD,20877,Bank,"484 North Frederick Ave. Gaithersburg, MD 20877",39.149150349735,-77.208512638327
Sandy Spring Bank,Glen Burnie,7405 Ritchie Highway,Glen Burnie,MD,21061,Bank,"7405 Ritchie Highway Glen Burnie, MD 21061",39.166437731668,-76.621738763816
Sandy Spring Bank,Greenbelt,7565 Greenbelt Road,College Park,MD,20770,Bank,"7565 Greenbelt Road College Park, MD 20770",38.99218840012,-76.877616726271
Sandy Spring Bank,Jennifer Road,166 Jennifer Road,Annapolis,MD,21401,Bank,"166 Jennifer Road Annapolis, MD 21401",38.98865727195,-76.539857879532
Sandy Spring Bank,Laurel,319 Main Street,Laurel,MD,20707,Bank,"319 Main Street Laurel, MD 20707",39.104679533795,-76.844574593401
Sandy Spring Bank,Laurel Lakes,14404 Baltimore Ave.,Laurel,MD,20707,Bank,"14404 Baltimore Ave. Laurel, MD 20707",39.088107044384,-76.860489815874
Sandy Spring Bank,Layhill,14241 Layhill Road,Silver Spring,MD,20906,Bank,"14241 Layhill Road Silver Spring, MD 20906",39.090330595658,-77.044191461543
Sandy Spring Bank,Leisure World,3801 International Drive,Silver Spring,MD,20906,Bank,"3801 International Drive Silver Spring, MD 20906",39.104067990139,-77.075444980094
Sandy Spring Bank,Lisbon,704 Lisbon Center Drive,Woodbine,MD,21797,Bank,"704 Lisbon Center Drive Woodbine, MD 21797",39.349557882803,-77.068149287751
Sandy Spring Bank,Maplewood,9707 Old Georgetown Road,Bethesda,MD,20814,Bank,"9707 Old Georgetown Road Bethesda, MD 20814",39.014769540641,-77.116107101141
Sandy Spring Bank,Milestone,20930 Frederick Road,Germantown,MD,20876,Bank,"20930 Frederick Road Germantown, MD 20876",39.203202393466,-77.248785419971
Sandy Spring Bank,Montgomery Village,9921 Stedwick Road,Montgomery Village,MD,20886,Bank,"9921 Stedwick Road Montgomery Village, MD 20886",39.170370855914,-77.205669161494
Sandy Spring Bank,Mount Airy,425 East Ridgeville Blvd,Mount Airy,MD,21771,Bank,"425 East Ridgeville Blvd Mount Airy, MD 21771",39.365192982073,-77.160913989488
Sandy Spring Bank,Olney,17801 Georgia Avenue,Olney,MD,20832,Bank,"17801 Georgia Avenue Olney, MD 20832",39.148643328412,-77.06577997518
Sandy Spring Bank,Oxon Hill,6089 Oxon Hill Road,Oxon Hill,MD,20745,Bank,"6089 Oxon Hill Road Oxon Hill, MD 20745",38.804969833607,-76.980523698488
Sandy Spring Bank,Pasadena,4001 Mountain Road,Pasadena,MD,21122,Bank,"4001 Mountain Road Pasadena, MD 21122",39.122958704421,-76.51946009906
Sandy Spring Bank,Potomac,9812 Falls Road,Potomac,MD,20854,Bank,"9812 Falls Road Potomac, MD 20854",39.017915143174,-77.211078674165
Sandy Spring Bank,Rockville,611 Rockville Pike,Rockville,MD,20852,Bank,"611 Rockville Pike Rockville, MD 20852",39.08021497963,-77.144553017404
Sandy Spring Bank,Sevena Park,8529 Veterans Highway,Millersville,MD,21108,Bank,"8529 Veterans Highway Millersville, MD 21108",39.097166079607,-76.623862905718
Sandy Spring Bank,Shady Grove,14941 Shady Grove Road,Rockville,MD,20850,Bank,"14941 Shady Grove Road Rockville, MD 20850",39.098075851378,-77.192567241002
Sandy Spring Bank,Silver Spring,8401 Colesville Road,Silver Spring,MD,20910,Bank,"8401 Colesville Road Silver Spring, MD 20910",38.994975341016,-77.031555071953
Sandy Spring Bank,Towson,502 Washington Ave.,Towson,MD,21204,Bank,"502 Washington Ave. Towson, MD 21204",39.401551792119,-76.605400841965
Sandy Spring Bank,Urbana,8921 Fingerboard Road,Frederick,MD,21704,Bank,"8921 Fingerboard Road Frederick, MD 21704",39.324582870735,-77.34878102194
Sandy Spring Bank,Wildwood,10329 Old Georgetown Road,Bethesda,MD,20814,Bank,"10329 Old Georgetown Road Bethesda, MD 20814",39.025275334262,-77.125143630954
The Bank of Glen Burnie,Odenton,1405 Annapolis Road,Odenton,MD,21113,Bank,"1405 Annapolis Road Odenton, MD 21113",39.089921977879,-76.708011765363
The Bank of Glen Burnie,Riviera Beach,8707 Ft Smallwood Road,Pasadena,MD,21122,Bank,"8707 Ft Smallwood Road Pasadena, MD 21122",39.144134702694,-76.524806663638
The Bank of Glen Burnie,Crownsville,1221 Generals Highway,Crownsville,MD,21032,Bank,"1221 Generals Highway Crownsville, MD 21032",39.039806536883,-76.603677438853
The Bank of Glen Burnie,Severn,811 Reece Road,Severn,MD,21144,Bank,"811 Reece Road Severn, MD 21144",39.136271471687,-76.687543409265
The Bank of Glen Burnie,New Cut,740 Stevenson Road,Severn,MD,21144,Bank,"740 Stevenson Road Severn, MD 21144",39.125502318668,-76.64335870959
The Bank of Glen Burnie,Linthicum,7063 Baltimore Annapolis Blvd,Glen Burnie,MD,21061,Bank,"7063 Baltimore Annapolis Blvd Glen Burnie, MD 21061",39.199576340243,-76.64133649163
The Bank of Glen Burnie,Severna Park,534 Ritchie Highway,Severna Park,MD,21146,Bank,"534 Ritchie Highway Severna Park, MD 21146",39.078117659818,-76.547207383694
The Chesapeake Bank & Trust Co.,Main Branch Downtown,245 High Street,Chestertown,MD,21620,Bank,"245 High Street Chestertown, MD 21620",39.208801630516,-76.066540775852
The Chesapeake Bank & Trust Co.,Drive-In Washington Ave.,611 Washington Ave.,Chestertown,MD,21620,Bank,"611 Washington Ave. Chestertown, MD 21620",39.223118340235,-76.068997595491
The Chesapeake Bank & Trust Co.,Heron Point Branch,501 E. Campus Avenue,Chestertown,MD,21620,Bank,"501 E. Campus Avenue Chestertown, MD 21620",39.219093140782,-76.055091515209
The Farmers Bank of Willards,North Ocean City,12831 Coastal Highway,Ocean City,MD,21842,Bank,"12831 Coastal Highway Ocean City, MD 21842",38.434284188987,-75.054983615435
The Farmers Bank of Willards,West Ocean City,12641 Ocean Gateway,Ocean City,MD,21842,Bank,"12641 Ocean Gateway Ocean City, MD 21842",38.337655220338,-75.108784118252
The Farmers Bank of Willards,Milford Street,102 Milford Street,Salisbury,MD,21804,Bank,"102 Milford Street Salisbury, MD 21804",38.338026748196,-75.600489022024
The Farmers Bank of Willards,Pemberton,1150 Parsons Road,Salisbury,MD,21801,Bank,"1150 Parsons Road Salisbury, MD 21801",38.367702163927,-75.618418918745
The Farmers Bank of Willards,Shoppers World,365 Tilghman Road,Salisbury,MD,21804,Bank,"365 Tilghman Road Salisbury, MD 21804",38.36579917854,-75.543977727901
The Farmers Bank of Willards,Willards Branch,7233 Main Street,Willards,MD,21874,Bank,"7233 Main Street Willards, MD 21874",38.388102458971,-75.351985038888
The Farmers Bank of Willards,Main Office,7484 Market Street,Willards,MD,21874,Bank,"7484 Market Street Willards, MD 21874",38.394633386468,-75.349336273665
The Harbor Bank of Maryland,Fayette Branch,25 West Fayette Street,Baltimore,MD,21201,Bank,"25 West Fayette Street Baltimore, MD 21201",39.290195777682,-76.616309218396
The Harbor Bank of Maryland,Harbor East Branch,1000 Lancaster Street,Baltimore,MD,21202,Bank,"1000 Lancaster Street Baltimore, MD 21202",39.282723981553,-76.599407026823
The Harbor Bank of Maryland,Science and Technology Branch,855 North Wolfe Street,Baltimore,MD,21205,Bank,"855 North Wolfe Street Baltimore, MD 21205",39.30009237458,-76.590643914691
The Harbor Bank of Maryland,Randallstown Branch,8530 Liberty Road,Randallstown,MD,21133,Bank,"8530 Liberty Road Randallstown, MD 21133",39.361273101234,-76.777406044666
The Harbor Bank of Maryland,Research Park Branch,800 West Baltimore Street,Baltimore,MD,21201,Bank,"800 West Baltimore Street Baltimore, MD 21201",39.289179010917,-76.629394039805
The Harbor Bank of Maryland,Pimlico Branch,5000 Park Heights Ave.,Baltimore,MD,21215,Bank,"5000 Park Heights Ave. Baltimore, MD 21215",39.347535371477,-76.673903202952
The Harbor Bank of Maryland,Northwood Commons Branch,1509 Havenwood Road,Baltimore,MD,21218,Bank,"1509 Havenwood Road Baltimore, MD 21218",39.340584007716,-76.59107860019
The Peoples Bank,Chestertown (Spring Ave.),100 Spring Ave.,Chestertown,MD,21620,Bank,"100 Spring Ave. Chestertown, MD 21620",39.209992573229,-76.06739531088
The Peoples Bank,Chestertown (Washington Ave.),600 Washington Ave.,Chestertown,MD,21620,Bank,"600 Washington Ave. Chestertown, MD 21620",39.222620706643,-76.069993449408
The Peoples Bank,Easton,204 N. Washington Street,Easton,MD,21601,Bank,"204 N. Washington Street Easton, MD 21601",38.777234786552,-76.075774364209
The Peoples Bank,Galena,166 N. Main Street,Galena,MD,21635,Bank,"166 N. Main Street Galena, MD 21635",39.347589183295,-75.87816730881
The Peoples Bank,Millington,31905 River Road,Millington,MD,21651,Bank,"31905 River Road Millington, MD 21651",39.262793576002,-75.85906352655
The Peoples Bank,Rock Hall,21337 Rock Hall Ave.,Rock Hall,MD,21661,Bank,"21337 Rock Hall Ave. Rock Hall, MD 21661",39.138184515358,-76.233346684013
The Peoples Bank,Sudlersville,228 East Main Street,Sudlersville,MD,21668,Bank,"228 East Main Street Sudlersville, MD 21668",39.18802067134,-75.85112527751
The Queenstown Bank of Maryland,Main Office,7101 Main Street,Queenstown,MD,21658,Bank,"7101 Main Street Queenstown, MD 21658",38.990926756054,-76.157102294339
The Queenstown Bank of Maryland,Chester Branch,1423 Main Street,Chester,MD,21619,Bank,"1423 Main Street Chester, MD 21619",38.977602170304,-76.28995629786
The Queenstown Bank of Maryland,Centreville Branch,115 Coursevall Drive,Centreville,MD,21617,Bank,"115 Coursevall Drive Centreville, MD 21617",39.033962757808,-76.074658984353
The Queenstown Bank of Maryland,Ridgely Branch,204A East 6th Street,Ridgley,MD,21660,Bank,"204A East 6th Street Ridgley, MD 21660",38.943614684485,-75.877035081329
The Queenstown Bank of Maryland,Grasonville Branch,3701 Main Street,Grasonville,MD,21638,Bank,"3701 Main Street Grasonville, MD 21638",38.964071222099,-76.220601664959
The Queenstown Bank of Maryland,Benton's Crossing Branch,101 Main Street,Stevensville,MD,21666,Bank,"101 Main Street Stevensville, MD 21666",38.982823383521,-76.317864934131
The Bank of Glen Burnie,Glen Burnie,101 Crain Highway,Glen Burnie,MD,21061,Bank,"101 Crain Highway Glen Burnie, MD 21061",39.165068757331,-76.624521220394
The Queenstown Bank of Maryland,Easton Branch,274 N. Washington Street,Easton,MD,21601,Bank,"274 N. Washington Street Easton, MD 21601",38.779416260672,-76.075273629313
The Queenstown Bank of Maryland,Church Hill Branch,1005 Sudlersville Road,Church Hill,MD,21623,Bank,"1005 Sudlersville Road Church Hill, MD 21623",39.149062549299,-75.980827098703
The Queenstown Bank of Maryland,Cambridge Branch,110 Dorchester Ave.,Cambridge,MD,21613,Bank,"110 Dorchester Ave. Cambridge, MD 21613",38.569064018582,-76.065772993521
Woodsboro Bank,Main Office,5 N Main Street,Woodsboro,MD,21798,Bank,"5 N Main Street Woodsboro, MD 21798",39.535445319272,-77.314943781735
Woodsboro Bank,Thurmont Office,143 Frederick Road,Thurmont,MD,21788,Bank,"143 Frederick Road Thurmont, MD 21788",39.614951107472,-77.418648124402
Woodsboro Bank,Monocacy Office,900 N. East Street,Frederick,MD,21701,Bank,"900 N. East Street Frederick, MD 21701",39.425931814791,-77.402899534163
Woodsboro Bank,Rt. 40 Office,1420 W. Patrick Street,Frederick,MD,21702,Bank,"1420 W. Patrick Street Frederick, MD 21702",39.420409104517,-77.464253053751
Woodsboro Bank,Downtown Office,6 W. Patrick Street,Frederick,MD,21701,Bank,"6 W. Patrick Street Frederick, MD 21701",39.414049377392,-77.411279928596
Central Credit Union,Loch Raven Branch,8501 Lasalle Road,Baltimore,MD,21286,Credit Union,"8501 Lasalle Road Baltimore, MD 21286",39.393574734867,-76.576167110622
Destinations Credit Union,Parkville Branch,8767 Satyr Hill Road,Parkville,MD,21234,Credit Union,"8767 Satyr Hill Road Parkville, MD 21234",39.398154481034,-76.543158421546
Destinations Credit Union,Northwest Hospital Branch,5401 Old Court Road,Randallstown,MD,21133,Credit Union,"5401 Old Court Road Randallstown, MD 21133",39.358561052642,-76.78192456103
HAR-CO Credit Union,Bel Air,30 N. Hickory Ave.,Bel Air,MD,21014,Credit Union,"30 N. Hickory Ave. Bel Air, MD 21014",39.538689618715,-76.348744787438
HAR-CO Credit Union,Abingdon,3422 Emmorton Road,Abingdon,MD,21009,Credit Union,"3422 Emmorton Road Abingdon, MD 21009",39.467207658788,-76.311707504239
HAR-CO Credit Union,Aberdeen,1028 Middleton Road,Aberdeen,MD,21001,Credit Union,"1028 Middleton Road Aberdeen, MD 21001",39.520932053924,-76.179786071265
MECU,PJM Center Branch,312 N. Martin Luther King  Jr. Blvd.,Baltimore,MD,21201,Credit Union,"312 N. Martin Luther King  Jr. Blvd. Baltimore, MD 21201",39.293009121573,-76.629184743682
MECU,Dundalk Branch,7220 Holabird Avenue,Dundalk,MD,21222,Credit Union,"7220 Holabird Avenue Dundalk, MD 21222",39.272902360779,-76.516058890389
MECU,Hamilton Center Branch,2337 E. Northern Parkway,Baltimore,MD,21214,Credit Union,"2337 E. Northern Parkway Baltimore, MD 21214",39.367430614944,-76.565616306181
MECU,Seton Branch,4801 Seton Drive,Baltimore,MD,21215,Credit Union,"4801 Seton Drive Baltimore, MD 21215",39.343411726571,-76.70673687789
MECU,Westview Branch,5910 Baltimore National Pike,Catonsville,MD,21228,Credit Union,"5910 Baltimore National Pike Catonsville, MD 21228",39.287343877036,-76.736721292481
MECU,Loch Ridge Center Branch,8507 Loch Raven Boulevard,Baltimore,MD,21286,Credit Union,"8507 Loch Raven Boulevard Baltimore, MD 21286",39.393234681056,-76.563397281134
The Glen Burnie Mutual Savings,Main Office,1 Crain Highway,Glen Burnie,MD,21061,Bank,"1 Crain Highway Glen Burnie, MD 21061",39.16363272777,-76.625435099297
MECU,Commerce Center Branch,1777 Reisterstown Road,Pikesville,MD,21208,Credit Union,"1777 Reisterstown Road Pikesville, MD 21208",39.386185584304,-76.734539231627
Central Credit Union,Perry Point Branch,Avenue D,Perry Point,MD,21902,Credit Union,"Avenue D Perry Point, MD 21902",39.552495935534,-76.070063457504
MECU,Randallstown Branch,8700 Liberty Road,Randallstown,MD,21133,Credit Union,"8700 Liberty Road Randallstown, MD 21133",39.363906988578,-76.782952014721
Point Breeze Credit Union,Point Breeze Branch,405 Englar Road,Westminster,MD,21157,Credit Union,"405 Englar Road Westminster, MD 21157",39.585630832978,-76.98701531486
Point Breeze Credit Union,Point Breeze Branch,10110 Reisterstown Road,Owings Mills,MD,21117,Credit Union,"10110 Reisterstown Road Owings Mills, MD 21117",39.414302007954,-76.773893189046
Point Breeze Credit Union,Point Breeze Branch,5 Philadelphia Court,Baltimore,MD,21237,Credit Union,"5 Philadelphia Court Baltimore, MD 21237",39.337852596928,-76.490199461808
MECU,Headquarters Branch,301 East Baltimore Street,Baltimore,MD,21202,Credit Union,"301 East Baltimore Street Baltimore, MD 21202",39.289631568459,-76.610917442497
Point Breeze Credit Union,Point Breeze Branch,11104 McCormick Road,Hunt Valley,MD,21031,Credit Union,"11104 McCormick Road Hunt Valley, MD 21031",39.4866895487,-76.657180216469
Point Breeze Credit Union,Point Breeze Branch,410 S. Atwood Road,Bel Air,MD,21014,Credit Union,"410 S. Atwood Road Bel Air, MD 21014",39.528252975796,-76.350049765944
Post Office Credit Union,Branch,900 East Fayette Street,Baltimore,MD,21233,Credit Union,"900 East Fayette Street Baltimore, MD 21233",39.291427121168,-76.604388643338
SECU,Shady Grove,16707 Crabbs Branch Way,Derwood,MD,20855,Credit Union,"16707 Crabbs Branch Way Derwood, MD 20855",39.129635812309,-77.166816525705
SECU,Silver Spring,8737 Colesville Road,Silver Spring,MD,20910,Credit Union,"8737 Colesville Road Silver Spring, MD 20910",38.998733702581,-77.025756722794
SECU,Greenbelt Road,6011 Greenbelt Road,Berwyn Heights,MD,20740,Credit Union,"6011 Greenbelt Road Berwyn Heights, MD 20740",38.997251237276,-76.910983909346
SECU,Frederick,5110 Buckeystown Pike,Frederick,MD,21704,Credit Union,"5110 Buckeystown Pike Frederick, MD 21704",39.372198073832,-77.411389060976
SECU,Maple Lawn,8175 Westside Blvd,Fulton,MD,20759,Credit Union,"8175 Westside Blvd Fulton, MD 20759",39.149095196812,-76.908503033644
SECU,Clarksville,12179 Clarksville Pike,Clarksville,MD,21029,Credit Union,"12179 Clarksville Pike Clarksville, MD 21029",39.214317635267,-76.934299933228
SECU,Columbia,8630 Snowden River Parkway,Columbia,MD,21045,Credit Union,"8630 Snowden River Parkway Columbia, MD 21045",39.197773770056,-76.808821333949
SECU,Ellicott City,10025 Baltimore National Pike,Ellicott City,MD,21042,Credit Union,"10025 Baltimore National Pike Ellicott City, MD 21042",39.278731555342,-76.856828181472
SECU,Crofton,1298 Cronson Boulevard,Crofton,MD,21114,Credit Union,"1298 Cronson Boulevard Crofton, MD 21114",39.009279771247,-76.699611589638
SECU,Baltimore - Chadwick,7173 Security Boulevard,Baltimore,MD,21244,Credit Union,"7173 Security Boulevard Baltimore, MD 21244",39.312928504922,-76.756233692521
SECU,Owings Mills,10801 Red Run Boulevard,Owings Mills,MD,21117,Credit Union,"10801 Red Run Boulevard Owings Mills, MD 21117",39.417796716754,-76.801605940238
SECU,Pasadena,8055 Jumpers Hole Road,Pasadena,MD,21122,Credit Union,"8055 Jumpers Hole Road Pasadena, MD 21122",39.128110012565,-76.588032197481
SECU,Baltimore - Pratt,250 W. Pratt Street,Baltimore,MD,21201,Credit Union,"250 W. Pratt Street Baltimore, MD 21201",39.286802783276,-76.618767882054
SECU,Baltimore - State Office Complex,301 W. Preston Street,Baltimore,MD,21201,Credit Union,"301 W. Preston Street Baltimore, MD 21201",39.301491649496,-76.622163055754
SECU,Annapolis Town Center,203 Harker Place,Annapolis,MD,21401,Credit Union,"203 Harker Place Annapolis, MD 21401",38.981396113048,-76.539194032801
SECU,Annapolis - West Street,115 West Street,Annapolis,MD,21401,Credit Union,"115 West Street Annapolis, MD 21401",38.977651581623,-76.49773236201
SECU,Hagerstown,17239 Cole Road,Hagerstown,MD,21740,Credit Union,"17239 Cole Road Hagerstown, MD 21740",39.620362003157,-77.769957994004
SECU,Glen Burnie,103 Chesapeake Center,Glen Burnie,MD,21060,Credit Union,"103 Chesapeake Center Glen Burnie, MD 21060",39.19313078243,-76.607132878437
SECU,Timonium,33 E. Padonia Road,Timonium,MD,21093,Credit Union,"33 E. Padonia Road Timonium, MD 21093",39.4556229885,-76.63006098784
SECU,Towson,8603 LaSalle Road,Towson,MD,21286,Credit Union,"8603 LaSalle Road Towson, MD 21286",39.394906493553,-76.575552130386
SECU,Baltimore - Fullerton,7906 Rossville Boulevard,Baltimore,MD,21236,Credit Union,"7906 Rossville Boulevard Baltimore, MD 21236",39.370602033739,-76.504974996906
SECU,Bel Air,210 Plumtree Road,Bel Air,MD,21015,Credit Union,"210 Plumtree Road Bel Air, MD 21015",39.501537922538,-76.331751987493
SECU,Salisbury,1101 Mt. Hermon Road,Salisbury,MD,21804,Credit Union,"1101 Mt. Hermon Road Salisbury, MD 21804",38.368617970668,-75.575871875312
SECU,LaVale,12200 Winchester Road,LaVale,MD,21502,Credit Union,"12200 Winchester Road LaVale, MD 21502",39.629208599045,-78.837413899059
